0 COSMOS 1579 COOLANT
1 26520U 84069M   13284.15623939  .00000070  00000-0  12921-3 0  6529
2 26520 065.0460 128.7127 0046123 191.2307 168.7846 13.89460657689760
0 COSMOS 1579 COOLANT
1 26520U 84069M   13287.17920083  .00000077  00000-0  13477-3 0  6539
2 26520 065.0458 120.8269 0046236 190.1790 169.8335 13.89461791690189
0 COSMOS 1579 COOLANT
1 26520U 84069M   13290.13018868  .00000078  00000-0  13560-3 0  6543
2 26520 065.0453 113.1289 0046204 188.9814 171.0437 13.89462754690591
0 COSMOS 1579 COOLANT
1 26520U 84069M   13293.08117292  .00000081  00000-0  13823-3 0  6558
2 26520 065.0448 105.4306 0046114 188.0066 172.0250 13.89463820691005
0 COSMOS 1579 COOLANT
1 26520U 84069M   13295.09647828  .00000086  00000-0  14254-3 0  6569
2 26520 065.0447 100.1727 0045983 187.2775 172.7621 13.89464663691289
